[{"OBJECT_NAME":"WEILAI 1R","OBJECT_ID":"2019-093F","EPOCH":"2026-03-09T22:33:48.244608","MEAN_MOTION":14.997592,"ECCENTRICITY":0.00116762,"INCLINATION":97.7939,"RA_OF_ASC_NODE":158.7373,"ARG_OF_PERICENTER":23.5076,"MEAN_ANOMALY":336.6679,"EPHEMERIS_TYPE":0,"CLASSIFICATION_TYPE":"U","NORAD_CAT_ID":44884,"ELEMENT_SET_NO":999,"REV_AT_EPOCH":33754,"BSTAR":0.00050142794,"MEAN_MOTION_DOT":6.146e-5,"MEAN_MOTION_DDOT":0},{"OBJECT_NAME":"STARLINK-32839","OBJECT_ID":"2025-037A","EPOCH":"2026-03-09T23:33:53.501472","MEAN_MOTION":14.98327327,"ECCENTRICITY":0.0002684,"INCLINATION":70.0024,"RA_OF_ASC_NODE":353.8071,"ARG_OF_PERICENTER":269.6025,"MEAN_ANOMALY":90.4826,"EPHEMERIS_TYPE":0,"CLASSIFICATION_TYPE":"U","NORAD_CAT_ID":63077,"ELEMENT_SET_NO":999,"REV_AT_EPOCH":5863,"BSTAR":0.0005179283,"MEAN_MOTION_DOT":6.092e-5,"MEAN_MOTION_DDOT":0}]
